<!DOCTYPE html PUBLIC "-//W3C//DTD XHTML 1.0 Transitional//EN" "http://www.w3.org/TR/xhtml1/DTD/xhtml1-transitional.dtd"> 
<!-- Generated by rfcdiff 1.41: rfcdiff  --> 
<!-- <!DOCTYPE html PUBLIC "-//W3C//DTD HTML 4.01 Transitional" > -->
<!-- System: Linux fomalhaut.local 3.13.0-38-generic #65-Ubuntu SMP Thu Oct 9 11:36:50 UTC 2014 x86_64 x86_64 x86_64 GNU/Linux --> 
<!-- Using awk: /usr/bin/gawk: GNU Awk 4.0.1 --> 
<!-- Using diff: /usr/bin/diff: diff (GNU diffutils) 3.3 --> 
<!-- Using wdiff: /usr/bin/wdiff: wdiff (GNU wdiff) 1.2.1 --> 
<html xmlns="http://www.w3.org/1999/xhtml" xml:lang="en" lang="en"> 
<head> 
  <meta http-equiv="Content-Type" content="text/html; charset=utf-8" /> 
  <meta http-equiv="Content-Style-Type" content="text/css" /> 
  <title>Diff: SolarSystemEditor.cpp - SolarSystemEditor.cpp</title> 
  <style type="text/css"> 
    body    { font-size:16px; margin: 0.4ex; margin-right: auto; } 
    tr      { } 
    td      { white-space: pre; font-family: Consolas, "DejaVu Sans Mono", "Droid Sans Mono", Monaco, Monospace; vertical-align: top; font-size: 0.86em;} 
    th      { font-size: 0.86em; } 
    .small  { font-size: 0.6em; font-style: italic; font-family: Verdana, Helvetica, sans-serif; } 
    .left   { background-color: #EEE; } 
    .right  { background-color: #FFF; } 
    .diff   { background-color: #CCF; } 
    .lblock { background-color: #BFB; } 
    .rblock { background-color: #FF8; } 
    .insert { background-color: #8FF; } 
    .delete { background-color: #ACF; } 
    .void   { background-color: #FFB; } 
    .cont   { background-color: #EEE; } 
    .linebr { background-color: #AAA; } 
    .lineno { color: red; background-color: #FFF; font-size: 0.7em; text-align: right; padding: 0 2px; } 
    .elipsis{ background-color: #AAA; } 
    .left .cont { background-color: #DDD; } 
    .right .cont { background-color: #EEE; } 
    .lblock .cont { background-color: #9D9; } 
    .rblock .cont { background-color: #DD6; } 
    .insert .cont { background-color: #0DD; } 
    .delete .cont { background-color: #8AD; } 
    .stats, .stats td, .stats th { background-color: #EEE; padding: 2px 0; } 
  </style> 
</head> 
<body > 
  <table border="0" cellpadding="0" cellspacing="0"> 
  <tr bgcolor="orange"><th></th><th>&nbsp;SolarSystemEditor.cpp&nbsp;</th><th> </th><th>&nbsp;SolarSystemEditor.cpp&nbsp;</th><th></th></tr> 
      <tr><td class="lineno"></td><td class="left"></td><td> </td><td class="right"></td><td class="lineno"></td></tr>
      <tr bgcolor="gray" ><td></td><th><a name="part-l1" /><small>skipping to change at</small><em> line 421</em></th><th> </th><th><a name="part-r1" /><small>skipping to change at</small><em> line 421</em></th><td></td></tr>
      <tr><td class="lineno" valign="top"></td><td class="left">  "    CK09K030  2011 01  9.266   3.90156   1.00000   251.413     0.032   1
46.680              8.5  4.0  C/2009 K3 (Beshore)                          
            MPC 66205" -&gt; lower precision than the spec, fixed</td><td> </td><td class="right">  "    CK09K030  2011 01  9.266   3.90156   1.00000   251.413     0.032   1
46.680              8.5  4.0  C/2009 K3 (Beshore)                          
            MPC 66205" -&gt; lower precision than the spec, fixed</td><td class="lineno" valign="top"></td></tr>
      <tr><td class="lineno" valign="top"></td><td class="left">  "    CK10F040  2010 04  6.109   0.61383   1.00000   120.718   237.294    
89.143             13.5  4.0  C/2010 F4 (Machholz)                         
            MPC 69906" -&gt; lower precision than the spec, fixed</td><td> </td><td class="right">  "    CK10F040  2010 04  6.109   0.61383   1.00000   120.718   237.294    
89.143             13.5  4.0  C/2010 F4 (Machholz)                         
            MPC 69906" -&gt; lower precision than the spec, fixed</td><td class="lineno" valign="top"></td></tr>
      <tr><td class="lineno" valign="top"></td><td class="left">  "    CK10M010  2012 02  7.840   2.29869   1.00000   265.318    82.150    
78.373              9.0  4.0  C/2010 M1 (Gibbs)                            
            MPC 70817" -&gt; lower precision than the spec, fixed</td><td> </td><td class="right">  "    CK10M010  2012 02  7.840   2.29869   1.00000   265.318    82.150    
78.373              9.0  4.0  C/2010 M1 (Gibbs)                            
            MPC 70817" -&gt; lower precision than the spec, fixed</td><td class="lineno" valign="top"></td></tr>
      <tr><td class="lineno" valign="top"></td><td class="left">  "    CK10R010  2011 11 28.457   6.66247   1.00000    96.009   345.949   1
57.437              6.0  4.0  C/2010 R1 (LINEAR)                           
            MPEC 2010-R99" -&gt; lower precision than the spec, fixed</td><td> </td><td class="right">  "    CK10R010  2011 11 28.457   6.66247   1.00000    96.009   345.949   1
57.437              6.0  4.0  C/2010 R1 (LINEAR)                           
            MPEC 2010-R99" -&gt; lower precision than the spec, fixed</td><td class="lineno" valign="top"></td></tr>
      <tr><td class="lineno" valign="top"></td><td class="left">  "0128P      b  2007 06 13.8064  3.062504  0.320891  210.3319  214.3583   
 4.3606  20100723   8.5  4.0  128P/Shoemaker-Holt                          
            MPC 51822" -&gt; fragment, fixed</td><td> </td><td class="right">  "0128P      b  2007 06 13.8064  3.062504  0.320891  210.3319  214.3583   
 4.3606  20100723   8.5  4.0  128P/Shoemaker-Holt                          
            MPC 51822" -&gt; fragment, fixed</td><td class="lineno" valign="top"></td></tr>
      <tr><td class="lineno" valign="top"></td><td class="left">  "0141P      d  2010 05 29.7106  0.757809  0.749215  149.3298  246.0849   
12.8032  20100723  12.0 12.0  141P/Machholz                                
            MPC 59599" -&gt; fragment, fixed</td><td> </td><td class="right">  "0141P      d  2010 05 29.7106  0.757809  0.749215  149.3298  246.0849   
12.8032  20100723  12.0 12.0  141P/Machholz                                
            MPC 59599" -&gt; fragment, fixed</td><td class="lineno" valign="top"></td></tr>
      <tr><td class="lineno" valign="top"></td><td class="left">*/</td><td> </td><td class="right">*/</td><td class="lineno" valign="top"></td></tr>
      <tr><td class="lineno" valign="top"></td><td class="left">SsoElements SolarSystemEditor::readMpcOneLineCometElements(QString oneLineE
lements)</td><td> </td><td class="right">SsoElements SolarSystemEditor::readMpcOneLineCometElements(QString oneLineE
lements)</td><td class="lineno" valign="top"></td></tr>
      <tr><td class="lineno" valign="top"></td><td class="left">{</td><td> </td><td class="right">{</td><td class="lineno" valign="top"></td></tr>
      <tr><td class="lineno" valign="top"></td><td class="left">       SsoElements result;</td><td> </td><td class="right">       SsoElements result;</td><td class="lineno" valign="top"></td></tr>
      <tr><td><a name="diff0001" /></td></tr>
      <tr><td class="lineno" valign="top"></td><td class="lblock">       qDebug() &lt;&lt; "readMpcOneLineCometElements started..."; // GZ</td><td> </td><td class="rblock">       <span class="insert">//</span>qDebug() &lt;&lt; "readMpcOneLineCometElements started..."; // GZ</td><td class="lineno" valign="top"></td></tr>
      <tr><td class="lineno" valign="top"></td><td class="left"></td><td> </td><td class="right"></td><td class="lineno" valign="top"></td></tr>
      <tr><td class="lineno" valign="top"></td><td class="left">       QRegExp mpcParser("^\\s*(\\d{4})?([A-Z])((?:\\w{6}|\\s{6})?[0a-zA-Z]
)?\\s+(\\d{4})\\s+(\\d{2})\\s+(\\d{1,2}\\.\\d{3,4})\\s+(\\d{1,2}\\.\\d{5,6}
)\\s+(\\d\\.\\d{5,6})\\s+(\\d{1,3}\\.\\d{3,4})\\s+(\\d{1,3}\\.\\d{3,4})\\s+
(\\d{1,3}\\.\\d{3,4})\\s+(?:(\\d{4})(\\d\\d)(\\d\\d))?\\s+(\\-?\\d{1,2}\\.\
\d)\\s+(\\d{1,2}\\.\\d)\\s+(\\S.{1,54}\\S)(?:\\s+(\\S.*))?$");//</td><td> </td><td class="right">       QRegExp mpcParser("^\\s*(\\d{4})?([A-Z])((?:\\w{6}|\\s{6})?[0a-zA-Z]
)?\\s+(\\d{4})\\s+(\\d{2})\\s+(\\d{1,2}\\.\\d{3,4})\\s+(\\d{1,2}\\.\\d{5,6}
)\\s+(\\d\\.\\d{5,6})\\s+(\\d{1,3}\\.\\d{3,4})\\s+(\\d{1,3}\\.\\d{3,4})\\s+
(\\d{1,3}\\.\\d{3,4})\\s+(?:(\\d{4})(\\d\\d)(\\d\\d))?\\s+(\\-?\\d{1,2}\\.\
\d)\\s+(\\d{1,2}\\.\\d)\\s+(\\S.{1,54}\\S)(?:\\s+(\\S.*))?$");//</td><td class="lineno" valign="top"></td></tr>
      <tr><td class="lineno" valign="top"></td><td class="left"></td><td> </td><td class="right"></td><td class="lineno" valign="top"></td></tr>
      <tr><td class="lineno" valign="top"></td><td class="left">       int match = mpcParser.indexIn(oneLineElements);</td><td> </td><td class="right">       int match = mpcParser.indexIn(oneLineElements);</td><td class="lineno" valign="top"></td></tr>
      <tr><td class="lineno" valign="top"></td><td class="left">       //qDebug() &lt;&lt; "RegExp captured:" &lt;&lt; match &lt;&lt; mpcParser.capturedTexts
();</td><td> </td><td class="right">       //qDebug() &lt;&lt; "RegExp captured:" &lt;&lt; match &lt;&lt; mpcParser.capturedTexts
();</td><td class="lineno" valign="top"></td></tr>
      <tr><td class="lineno" valign="top"></td><td class="left"></td><td> </td><td class="right"></td><td class="lineno" valign="top"></td></tr>
      <tr><td class="lineno" valign="top"></td><td class="left">       if (match &lt; 0)</td><td> </td><td class="right">       if (match &lt; 0)</td><td class="lineno" valign="top"></td></tr>
      <tr><td class="lineno" valign="top"></td><td class="left">       {</td><td> </td><td class="right">       {</td><td class="lineno" valign="top"></td></tr>
      <tr><td class="lineno" valign="top"></td><td class="left">               qWarning() &lt;&lt; "No match for" &lt;&lt; oneLineElements;</td><td> </td><td class="right">               qWarning() &lt;&lt; "No match for" &lt;&lt; oneLineElements;</td><td class="lineno" valign="top"></td></tr>
